[{"OBJECT_NAME":"STARLINK-31853","OBJECT_ID":"2024-106M","EPOCH":"2026-03-09T02:35:20.600448","MEAN_MOTION":15.27569782,"ECCENTRICITY":4.231e-5,"INCLINATION":43.0016,"RA_OF_ASC_NODE":335.8243,"ARG_OF_PERICENTER":271.3812,"MEAN_ANOMALY":88.6991,"EPHEMERIS_TYPE":0,"CLASSIFICATION_TYPE":"U","NORAD_CAT_ID":59933,"ELEMENT_SET_NO":999,"REV_AT_EPOCH":10043,"BSTAR":-0.00010545764,"MEAN_MOTION_DOT":-3.161e-5,"MEAN_MOTION_DDOT":0},{"OBJECT_NAME":"SCS-01 G","OBJECT_ID":"2025-100G","EPOCH":"2026-03-09T22:06:35.300160","MEAN_MOTION":15.25626619,"ECCENTRICITY":0.00115239,"INCLINATION":97.3761,"RA_OF_ASC_NODE":145.2582,"ARG_OF_PERICENTER":298.6971,"MEAN_ANOMALY":61.3108,"EPHEMERIS_TYPE":0,"CLASSIFICATION_TYPE":"U","NORAD_CAT_ID":63988,"ELEMENT_SET_NO":999,"REV_AT_EPOCH":4562,"BSTAR":0.00025501168,"MEAN_MOTION_DOT":6.423e-5,"MEAN_MOTION_DDOT":0}]
